{"generatedAt":"2026-04-26T07:47:29.254486Z","satellites":[{"name":"ONEWEB-0115","tle1":"1 48042U 21025A   26115.61317848 -.00000213  00000+0 -61934-3 0  9994","tle2":"2 48042  87.8972 330.6937 0001784  84.1852 275.9481 13.13469055246690"},{"name":"ONEWEB-0152","tle1":"1 48043U 21025B   26115.62672067 -.00000307  00000+0 -87469-3 0  9998","tle2":"2 48043  87.8965 330.6897 0001854  86.5916 273.5425 13.13469702246650"},{"name":"ONEWEB-0153","tle1":"1 48044U 21025C   26115.83324599  .00000019  00000+0  18396-4 0  9998","tle2":"2 48044  87.8964 330.6534 0001653  84.3562 275.7756 13.13469701246670"},{"name":"ONEWEB-0154","tle1":"1 48045U 21025D   26115.82984948 -.00001194  00000+0 -33060-2 0  9998","tle2":"2 48045  87.8963 330.6499 0001777  79.9727 280.1602 13.13473504246632"},{"name":"ONEWEB-0116","tle1":"1 48046U 21025E   26115.64026356  .00000038  00000+0  69991-4 0  9997","tle2":"2 48046  87.8981 330.6812 0001901  87.4782 272.6565 13.13469993246750"},{"name":"ONEWEB-0150","tle1":"1 48047U 21025F   26115.61656289 -.00000281  00000+0 -80405-3 0  9993","tle2":"2 48047  87.8974 330.6839 0001614  90.6043 269.5271 13.13469224246643"},{"name":"ONEWEB-0107","tle1":"1 48048U 21025G   26115.61824488 -.00000316  00000+0 -89921-3 0  9993","tle2":"2 48048  87.8974 330.6787 0001483  80.4757 279.6540 13.13469648246628"},{"name":"ONEWEB-0101","tle1":"1 48049U 21025H   26115.58101050  .00000315  00000+0  82759-3 0  9992","tle2":"2 48049  87.8964 330.7074 0001692  79.8838 280.2482 13.13470002246597"},{"name":"ONEWEB-0113","tle1":"1 48050U 21025J   26115.62270530 -.00000312  00000+0 -88222-3 0  9999","tle2":"2 48050  87.8972 330.6135 0001987  91.9092 268.2265 13.13947713246705"},{"name":"ONEWEB-0112","tle1":"1 48051U 21025K   26115.62333416 -.00000362  00000+0 -10251-2 0  9994","tle2":"2 48051  87.8977 330.6751 0001667  76.2446 283.8869 13.13469076246691"},{"name":"ONEWEB-0156","tle1":"1 48052U 21025L   26115.63179820 -.00000266  00000+0 -76454-3 0  9994","tle2":"2 48052  87.8974 330.6844 0001592  86.3339 273.7972 13.13469732246672"},{"name":"ONEWEB-0161","tle1":"1 48053U 21025M   26115.60640517 -.00000065  00000+0 -21234-3 0  9991","tle2":"2 48053  87.8967 330.6942 0001548  82.2749 277.8556 13.13469830246600"},{"name":"ONEWEB-0158","tle1":"1 48054U 21025N   26115.64195129  .00000018  00000+0  15133-4 0  9998","tle2":"2 48054  87.8972 330.6820 0002047  83.4652 276.6710 13.13470140246732"},{"name":"ONEWEB-0157","tle1":"1 48055U 21025P   26115.66734225  .00000264  00000+0  68782-3 0  9997","tle2":"2 48055  87.8977 330.6815 0001403  75.0146 285.1138 13.13469683246674"},{"name":"ONEWEB-0162","tle1":"1 48056U 21025Q   26115.64351367  .00000029  00000+0  45397-4 0  9995","tle2":"2 48056  87.8968 330.6897 0001629  90.5724 269.5592 13.13470721246641"},{"name":"ONEWEB-0155","tle1":"1 48057U 21025R   26115.65041837  .00000226  00000+0  58380-3 0  9999","tle2":"2 48057  87.8968 330.6848 0001696  78.4299 281.7021 13.13470170246780"},{"name":"ONEWEB-0149","tle1":"1 48058U 21025S   26115.82478394  .00000273  00000+0  71300-3 0  9990","tle2":"2 48058  87.8976 330.6507 0001628  91.6699 268.4616 13.13469488246612"},{"name":"ONEWEB-0148","tle1":"1 48059U 21025T   26115.63518160 -.00000145  00000+0 -43179-3 0  9999","tle2":"2 48059  87.8964 330.6993 0001360 102.9514 257.1767 13.13470542246710"},{"name":"ONEWEB-0160","tle1":"1 48060U 21025U   26115.65211802  .00000246  00000+0  63863-3 0  9998","tle2":"2 48060  87.8966 330.6922 0002444  90.6960 269.4449 13.13469395246669"},{"name":"ONEWEB-0163","tle1":"1 48061U 21025V   26115.63686544 -.00000139  00000+0 -41466-3 0  9994","tle2":"2 48061  87.8967 330.6883 0001478  78.9278 281.2017 13.13470542246786"},{"name":"ONEWEB-0159","tle1":"1 48062U 21025W   26115.62841590  .00000511  00000+0  13635-2 0  9996","tle2":"2 48062  87.8969 330.6783 0001489  82.2789 277.8509 13.13471974246704"},{"name":"ONEWEB-0164","tle1":"1 48063U 21025X   26115.60979186 -.00000152  00000+0 -45167-3 0  9997","tle2":"2 48063  87.8978 330.6900 0001812  83.2926 276.8409 13.13469292246685"},{"name":"ONEWEB-0167","tle1":"1 48064U 21025Y   26115.63772456 -.00000092  00000+0 -28612-3 0  9991","tle2":"2 48064  87.8966 330.6997 0001768  63.3823 296.7487 13.13469749246677"},{"name":"ONEWEB-0166","tle1":"1 48065U 21025Z   26115.66057847  .00000352  00000+0  92819-3 0  9992","tle2":"2 48065  87.8976 330.6617 0001567  87.8583 272.2726 13.13470186246750"},{"name":"ONEWEB-0151","tle1":"1 48066U 21025AA  26115.66226668  .00000311  00000+0  81566-3 0  9994","tle2":"2 48066  87.8965 330.6833 0001774  81.5526 278.5804 13.13469782246696"},{"name":"ONEWEB-0170","tle1":"1 48067U 21025AB  26115.59456078  .00000207  00000+0  53194-3 0  9997","tle2":"2 48067  87.8966 330.6984 0002147  77.6075 282.5294 13.13469293246645"},{"name":"ONEWEB-0168","tle1":"1 48068U 21025AC  26115.57932343  .00000287  00000+0  75088-3 0  9994","tle2":"2 48068  87.8975 330.6966 0001541  84.1027 276.0278 13.13470077246656"},{"name":"ONEWEB-0173","tle1":"1 48069U 21025AD  26115.64703244  .00000181  00000+0  46044-3 0  9992","tle2":"2 48069  87.8966 330.6882 0001510  74.0290 286.1005 13.13469887246905"},{"name":"ONEWEB-0171","tle1":"1 48070U 21025AE  26115.60809411 -.00000124  00000+0 -37542-3 0  9995","tle2":"2 48070  87.8968 330.7049 0001779  80.2380 279.8950 13.13469851246719"},{"name":"ONEWEB-0172","tle1":"1 48071U 21025AF  26115.66395128  .00000349  00000+0  92192-3 0  9996","tle2":"2 48071  87.8965 330.6817 0001702  77.3780 282.7539 13.13470232247617"},{"name":"ONEWEB-0174","tle1":"1 48072U 21025AG  26115.64533491  .00000081  00000+0  18586-3 0  9990","tle2":"2 48072  87.8965 330.6862 0001601  89.6338 270.4974 13.13470110246937"},{"name":"ONEWEB-0175","tle1":"1 48073U 21025AH  26115.82816284  .00000156  00000+0  39284-3 0  9996","tle2":"2 48073  87.8977 330.6300 0001937  76.4626 283.6718 13.13469199246616"},{"name":"ONEWEB-0177","tle1":"1 48074U 21025AJ  26115.61146672 -.00000159  00000+0 -46902-3 0  9991","tle2":"2 48074  87.8973 330.6938 0001513  83.2573 276.8728 13.13470698246775"},{"name":"ONEWEB-0178","tle1":"1 48075U 21025AK  26115.63024354 -.00000311  00000+0 -88680-3 0  9995","tle2":"2 48075  87.8956 330.7096 0001736  76.5594 283.5728 13.13469212246829"},{"name":"ONEWEB-0108","tle1":"1 48076U 21025AL  26115.66566056  .00000314  00000+0  82392-3 0  9994","tle2":"2 48076  87.8976 330.6723 0001838  91.9414 268.1926 13.13470287246758"},{"name":"ONEWEB-0169","tle1":"1 48077U 21025AM  26115.62165356 -.00000341  00000+0 -96927-3 0  9990","tle2":"2 48077  87.8968 330.6932 0001628  88.4011 271.7305 13.13470553245401"},{"name":"ONEWEB-0176","tle1":"1 48210U 21031A   26115.88606835  .00000302  00000+0  77886-3 0  9994","tle2":"2 48210  87.8926 300.1374 0001703  87.7650 272.3675 13.14503811241443"},{"name":"ONEWEB-0184","tle1":"1 48211U 21031B   26115.93522919 -.00000047  00000+0 -16173-3 0  9991","tle2":"2 48211  87.8939 300.1236 0002043  67.8327 292.3020 13.14502621241425"},{"name":"ONEWEB-0179","tle1":"1 48212U 21031C   26115.91668981  .00275824  00000+0  20244+0 0  9995","tle2":"2 48212  87.8936 299.4424 0085672  62.0316 255.2683 13.91997254  4948"},{"name":"ONEWEB-0180","tle1":"1 48213U 21031D   26115.93838437  .00000051  00000+0  10246-3 0  9996","tle2":"2 48213  87.8925 300.1227 0001492  84.3854 275.7446 13.14501942241352"},{"name":"ONEWEB-0218","tle1":"1 48214U 21031E   26115.88448719  .00000055  00000+0  11428-3 0  9998","tle2":"2 48214  87.8927 300.1317 0001796  63.1538 296.9776 13.14502390241502"},{"name":"ONEWEB-0209","tle1":"1 48215U 21031F   26115.94950965  .00000223  00000+0  56593-3 0  9996","tle2":"2 48215  87.8912 300.1414 0001492  91.9016 268.2285 13.14501961241519"},{"name":"ONEWEB-0198","tle1":"1 48216U 21031G   26115.93378113 -.00000034  00000+0 -12674-3 0  9999","tle2":"2 48216  87.8917 300.1449 0001459  78.1625 281.9668 13.14502785241623"},{"name":"ONEWEB-0189","tle1":"1 48217U 21031H   26115.94633274  .00000174  00000+0  43409-3 0  9996","tle2":"2 48217  87.8926 300.1228 0001512  81.5773 278.5528 13.14502220241363"},{"name":"ONEWEB-0196","tle1":"1 48218U 21031J   26115.92412696 -.00000190  00000+0 -54577-3 0  9996","tle2":"2 48218  87.8926 300.1372 0001592  88.5420 271.5893 13.14503525241365"},{"name":"ONEWEB-0183","tle1":"1 48219U 21031K   26115.74651794  .00000066  00000+0  14419-3 0  9992","tle2":"2 48219  87.8925 300.1718 0001681  98.1439 261.9881 13.14502450241439"},{"name":"ONEWEB-0185","tle1":"1 48220U 21031L   26115.92492386 -.00000171  00000+0 -49467-3 0  9994","tle2":"2 48220  87.8934 300.1247 0001373 100.8162 259.3122 13.14503264241387"},{"name":"ONEWEB-0187","tle1":"1 48221U 21031M   26115.75273143 -.00000063  00000+0 -20473-3 0  9990","tle2":"2 48221  87.8914 300.1839 0001439  90.8807 269.2488 13.14501679241372"},{"name":"ONEWEB-0192","tle1":"1 48222U 21031N   26115.95109229  .00000240  00000+0  61213-3 0  9998","tle2":"2 48222  87.8914 300.1331 0001721  88.3964 271.7363 13.14502521241311"},{"name":"ONEWEB-0219","tle1":"1 48223U 21031P   26115.93045620 -.00000398  00000+0 -11069-2 0  9990","tle2":"2 48223  87.8921 300.1271 0001457  93.2947 266.8350 13.14503195241516"},{"name":"ONEWEB-0202","tle1":"1 48224U 21031Q   26115.53084100 -.00000134  00000+0 -39671-3 0  9991","tle2":"2 48224  87.8928 300.2166 0001726  67.8938 292.2375 13.14503927241449"},{"name":"ONEWEB-0204","tle1":"1 48225U 21031R   26115.94553561  .00000195  00000+0  49204-3 0  9997","tle2":"2 48225  87.8928 300.1287 0001641 101.2984 258.8330 13.14503468241396"},{"name":"ONEWEB-0205","tle1":"1 48226U 21031S   26115.92095231 -.00000189  00000+0 -54385-3 0  9992","tle2":"2 48226  87.8932 300.1245 0001531  92.4803 267.6502 13.14503187241404"},{"name":"ONEWEB-0206","tle1":"1 48227U 21031T   26115.89400159  .00000125  00000+0  30374-3 0  9998","tle2":"2 48227  87.8930 300.1329 0001920  93.2560 266.8789 13.14504011241356"}]}